[{"OBJECT_NAME":"STARLINK-32290","OBJECT_ID":"2024-138E","EPOCH":"2026-03-09T21:21:44.499168","MEAN_MOTION":15.30174129,"ECCENTRICITY":4.837e-5,"INCLINATION":53.1597,"RA_OF_ASC_NODE":309.0077,"ARG_OF_PERICENTER":123.8936,"MEAN_ANOMALY":236.2111,"EPHEMERIS_TYPE":0,"CLASSIFICATION_TYPE":"U","NORAD_CAT_ID":60359,"ELEMENT_SET_NO":999,"REV_AT_EPOCH":7168,"BSTAR":0.00017799107,"MEAN_MOTION_DOT":4.912e-5,"MEAN_MOTION_DDOT":0},{"OBJECT_NAME":"CZ-4B R\/B","OBJECT_ID":"2004-035C","EPOCH":"2026-03-09T23:23:31.358400","MEAN_MOTION":15.2906998,"ECCENTRICITY":0.00309852,"INCLINATION":97.3501,"RA_OF_ASC_NODE":103.2135,"ARG_OF_PERICENTER":330.5139,"MEAN_ANOMALY":29.4353,"EPHEMERIS_TYPE":0,"CLASSIFICATION_TYPE":"U","NORAD_CAT_ID":28415,"ELEMENT_SET_NO":999,"REV_AT_EPOCH":17995,"BSTAR":0.00034109099,"MEAN_MOTION_DOT":9.691e-5,"MEAN_MOTION_DDOT":0}]
